[{"OBJECT_NAME":"STARLINK-3119","OBJECT_ID":"2021-082R","EPOCH":"2026-03-09T22:01:50.624256","MEAN_MOTION":14.98331314,"ECCENTRICITY":0.00026353,"INCLINATION":69.9989,"RA_OF_ASC_NODE":253.8624,"ARG_OF_PERICENTER":269.6747,"MEAN_ANOMALY":90.411,"EPHEMERIS_TYPE":0,"CLASSIFICATION_TYPE":"U","NORAD_CAT_ID":49145,"ELEMENT_SET_NO":999,"REV_AT_EPOCH":24699,"BSTAR":4.1518859e-5,"MEAN_MOTION_DOT":4.02e-6,"MEAN_MOTION_DDOT":0},{"OBJECT_NAME":"DELTA 1 DEB","OBJECT_ID":"1978-026BX","EPOCH":"2026-03-09T21:34:36.806304","MEAN_MOTION":15.0275865,"ECCENTRICITY":0.00371244,"INCLINATION":98.0194,"RA_OF_ASC_NODE":65.5332,"ARG_OF_PERICENTER":51.7385,"MEAN_ANOMALY":308.7169,"EPHEMERIS_TYPE":0,"CLASSIFICATION_TYPE":"U","NORAD_CAT_ID":12230,"ELEMENT_SET_NO":999,"REV_AT_EPOCH":36609,"BSTAR":0.0014350783,"MEAN_MOTION_DOT":0.00019449,"MEAN_MOTION_DDOT":0}]
